GALAPAGOS-UTE
1 67279U 25313AH  26248.15075620  .00003701  00000-0  15644-3 0  9997
2 67279  97.3860 321.5269 0015402  84.2343 276.0649 15.23744689 38127
NEE-01
1 39151U 13018B   26248.37711302  .00001118  00000-0  11063-3 0  9993
2 39151  98.1337  35.2498 0011043 258.9204 101.0773 14.93988296722674
NEE-02
1 39441U 13066AB  26249.30688231  .00000858  00000-0  98664-4 0  9999
2 39441  97.8925 187.9731 0066046 162.3371 198.0162 14.86884832688252
AMAZONIA 1
1 47699U 21015A   26248.15915745  .00000065  00000-0  33879-4 0  9998
2 47699  98.4252 319.6682 0002337 341.6882  18.4223 14.40843133290168
PERUSAT-01
1 41770U 16058A   26249.32406337  .00000118  00000-0  35248-4 0  9996
2 41770  98.1959 321.8998 0001464  85.5754 274.5613 14.58554316530920
SSOT
1 38011U 11076E   26248.87879500  .00000704  00000-0  93822-4 0  9993
2 38011  97.7992 307.3331 0001382  91.6996  23.8775 14.82645316796332
SAOCOM 1B
1 46265U 20059A   26250.59764741 -.00000159  00000-0 -13382-4 0  9995
2 46265  97.8909  75.2612 0001425  84.2451 275.8925 14.82159984325690
VRSS-2
1 42954U 17060A   26250.66781527  .00000479  00000-0  67756-4 0  9990
2 42954  97.7537 284.6961 0017308 184.6461 175.4594 14.81300504480664
